OBJECT_NAME,OBJECT_ID,EPOCH,MEAN_MOTION,ECCENTRICITY,INCLINATION,RA_OF_ASC_NODE,ARG_OF_PERICENTER,MEAN_ANOMALY,EPHEMERIS_TYPE,CLASSIFICATION_TYPE,NORAD_CAT_ID,ELEMENT_SET_NO,REV_AT_EPOCH,BSTAR,MEAN_MOTION_DOT,MEAN_MOTION_DDOT
HST,1990-037B,2026-07-22T05:08:13.927776,15.31110914,.00020355,28.4723,201.1073,171.5650,188.4980,0,U,20580,999,79394,.17637821E-3,.5689E-4,0
POLAR,1996-013A,2026-07-21T16:44:45.559392,1.29846001,.65050128,79.9018,226.6420,207.8918,92.1658,0,U,23802,999,14530,0,.193E-5,0
SWAS,1998-071A,2026-07-22T04:45:21.910464,15.09779260,.00073281,69.8955,137.2213,222.4214,137.6385,0,U,25560,999,50255,.20760011E-3,.3257E-4,0
CXO,1999-040B,2026-07-25T09:38:07.358784,0.37796798,.77734611,56.6765,115.6641,309.9148,0.5404,0,U,25867,999,1746,0,.689E-5,0
XMM-NEWTON,1999-066A,2026-07-24T05:58:43.881600,0.50127611,.46637907,64.2866,282.5076,64.2318,0.0628,0,U,25989,999,2318,0,.48E-6,0
TERRA,1999-068A,2026-07-22T21:50:45.358080,14.61127958,.0003648,97.9435,252.0364,107.6896,356.9651,0,U,25994,999,41482,.67347403E-4,.287E-5,0
CLUSTER II-FM7 (SAMBA),2000-041A,2026-07-20T14:26:37.417344,0.44850593,.90917143,149.8020,56.9135,274.4939,359.4480,0,U,26410,999,2046,0,.10308E-3,-.3041523E-5
CLUSTER II-FM8 (TANGO),2000-045B,2026-07-21T04:55:12.991872,0.44423605,.90954494,149.9883,58.1996,275.6510,2.0942,0,U,26464,999,2046,0,.10745E-3,-.2733494E-5
ODIN,2001-007A,2026-07-22T02:18:42.187104,15.94340343,.00045746,97.3694,246.6856,165.2192,194.9218,0,U,26702,999,39492,.16232712E-2,.602498E-2,.15102514E-3
TIMED,2001-055B,2026-07-22T20:50:33.422496,14.95357069,.00023773,74.0674,163.1713,292.0310,68.0622,0,U,26998,999,33615,.98120198E-4,.1043E-4,0
CORIOLIS,2003-001A,2026-07-22T18:45:58.226688,14.19953401,.00151535,98.7139,210.1248,108.9193,251.3627,0,U,27640,999,21927,.58158429E-4,.8E-6,0
SORCE,2003-004A,2026-07-22T22:25:44.431392,15.03871624,.00185555,39.9919,57.6963,306.4119,53.4964,0,U,27651,999,27728,.17410006E-3,.2295E-4,0
MOST,2003-031D,2026-07-22T11:31:11.630208,14.21328799,.0010495,98.7056,210.7147,145.0344,215.1524,0,U,27843,999,19572,.41339711E-4,.47E-6,0
SCISAT 1,2003-036A,2026-07-22T03:18:44.165952,14.81484604,.00070061,73.9301,101.9005,168.2411,191.8931,0,U,27858,999,23662,.6417372E-4,.466E-5,0
SWIFT,2004-047A,2026-07-22T12:16:52.747968,15.71818487,.00026488,20.5517,271.7026,103.4951,256.5791,0,U,28485,999,19242,.47233262E-3,.65667E-3,0
HINODE (SOLAR-B),2006-041A,2026-07-22T00:00:23.762592,14.68664645,.00176209,98.0548,218.6399,172.7614,187.3849,0,U,29479,999,5998,.104629E-3,.561E-5,0
SHIJIAN-6 02A (SJ-6 02A),2006-046A,2026-07-22T23:18:40.665600,15.17308577,.00038214,97.6352,245.3109,47.8054,312.3503,0,U,29505,999,7769,.28330846E-3,.5579E-4,0
SHIJIAN-6 02B (SJ-6 02B),2006-046B,2026-07-23T00:02:11.745312,15.01446360,.00124662,97.7145,232.8374,307.6880,52.3213,0,U,29506,999,7611,.58708573E-4,.698E-5,0
FGRST (GLAST),2008-029A,2026-07-22T15:36:38.123136,15.24105653,.00082366,25.5828,318.2136,28.4048,331.6939,0,U,33053,999,110,.89461088E-4,.2575E-4,0
SDO,2010-005A,2026-07-21T04:42:27.771264,1.00277625,.00016475,34.7200,85.8242,43.2128,138.3850,0,U,36395,999,6040,0,-.97E-6,0
CRYOSAT 2,2010-013A,2026-07-22T22:04:48.392256,14.51899898,.00025089,92.0353,285.9884,98.7637,261.3854,0,U,36508,999,86326,.16039952E-4,.68E-6,0
X-SAT,2011-015C,2026-07-22T21:21:13.938624,14.25215990,.00128493,98.3540,179.2170,235.7965,124.1999,0,U,37389,999,79276,.11475163E-3,.229E-5,0
GCOM-W1 (SHIZUKU),2012-025A,2026-07-22T19:16:48.531936,14.57094785,.00012562,98.2024,143.8203,80.3986,308.4401,0,U,38337,999,75422,.8011865E-4,.316E-5,0
NUSTAR,2012-031A,2026-07-23T00:00:02.000160,15.09092692,.00086831,6.0250,125.4220,279.9295,125.2498,0,U,38358,999,130,.40391609E-3,.7466E-4,0
NEOSSAT,2013-009D,2026-07-22T17:59:18.120192,14.35837443,.00118513,98.4196,22.9398,136.0971,224.1159,0,U,39089,999,70184,.52735274E-4,.11E-5,0
BRITE-AUSTRIA,2013-009F,2026-07-22T17:31:49.015488,14.36554620,.00111373,98.4015,22.2900,129.9893,230.2273,0,U,39091,999,70215,.56886811E-4,.125E-5,0
IRIS,2013-033A,2026-07-22T12:26:13.204032,14.85947122,.00238448,97.9318,42.6838,200.2233,159.8040,0,U,39197,999,70562,.96938688E-4,.794E-5,0
HISAKI (SPRINT-A),2013-049A,2026-07-22T22:07:15.369024,13.55547214,.01369363,29.7218,38.3316,306.4786,52.3237,0,U,39253,999,63627,.40277477E-4,.95E-6,0
CASSIOPE,2013-055A,2026-07-22T21:09:35.897472,15.27691877,.02815789,80.9137,23.2691,301.7753,55.6327,0,U,39265,999,67311,.24898603E-3,.23213E-3,-.443613E-6
STSAT-3,2013-066G,2026-07-22T22:24:54.512064,15.02926403,.00087195,97.6219,173.2459,273.4689,86.5539,0,U,39422,999,68957,.31463064E-3,.4168E-4,0
